{
  "type": "FeatureCollection",
  "features": [
    {
      "type": "Feature",
      "properties": {
        "norad_id": 34492,
        "name": "IRIDIUM 33 DEB",
        "group": "iridium-33-debris",
        "lat": -8.703658241115,
        "lon": -29.379679549470588,
        "alt_km": 914.0103612857183,
        "timestamp": "2025-12-21T07:34:34.900138+00:00",
        "meta_object_name": "IRIDIUM 33 DEB",
        "meta_object_id": "1997-051GH",
        "meta_epoch": "2025-12-19T10:45:18.347328",
        "meta_mean_motion": 14.25846982,
        "meta_eccentricity": 0.0188646,
        "meta_inclination": 86.4707,
        "meta_ra_of_asc_node": 331.9164,
        "meta_arg_of_pericenter": 216.3823,
        "meta_mean_anomaly": 273.3437,
        "meta_ephemeris_type": 0,
        "meta_classification_type": "U",
        "meta_norad_cat_id": 34492,
        "meta_element_set_no": 999,
        "meta_rev_at_epoch": 85154,
        "meta_bstar": 0.0022012,
        "meta_mean_motion_dot": 6.332e-05,
        "meta_mean_motion_ddot": 0,
        "tle_line1": "1 34492U 97051GH  25353.44812902  .00006332  00000+0  22012-2 0  9994",
        "tle_line2": "2 34492  86.4707 331.9164 0188646 216.3823 273.3437 14.25846982851542"
      },
      "geometry": {
        "type": "Point",
        "coordinates": [
          -29.379679549470588,
          -8.703658241115
        ]
      }
    },
    {
      "type": "Feature",
      "properties": {
        "norad_id": 34497,
        "name": "IRIDIUM 33 DEB",
        "group": "iridium-33-debris",
        "lat": -80.28705509007872,
        "lon": 26.381917600752825,
        "alt_km": 760.1210367981357,
        "timestamp": "2025-12-21T07:34:34.900148+00:00",
        "meta_object_name": "IRIDIUM 33 DEB",
        "meta_object_id": "1997-051GN",
        "meta_epoch": "2025-12-19T10:35:53.025216",
        "meta_mean_motion": 14.2747197,
        "meta_eccentricity": 0.0078309,
        "meta_inclination": 86.2774,
        "meta_ra_of_asc_node": 49.5385,
        "meta_arg_of_pericenter": 317.619,
        "meta_mean_anomaly": 57.0969,
        "meta_ephemeris_type": 0,
        "meta_classification_type": "U",
        "meta_norad_cat_id": 34497,
        "meta_element_set_no": 999,
        "meta_rev_at_epoch": 86979,
        "meta_bstar": 0.00044435,
        "meta_mean_motion_dot": 1.145e-05,
        "meta_mean_motion_ddot": 0,
        "tle_line1": "1 34497U 97051GN  25353.44158594  .00001145  00000+0  44435-3 0  9990",
        "tle_line2": "2 34497  86.2774  49.5385 0078309 317.6190  57.0969 14.27471970869798"
      },
      "geometry": {
        "type": "Point",
        "coordinates": [
          26.381917600752825,
          -80.28705509007872
        ]
      }
    },
    {
      "type": "Feature",
      "properties": {
        "norad_id": 34508,
        "name": "IRIDIUM 33 DEB",
        "group": "iridium-33-debris",
        "lat": 55.44032285623023,
        "lon": 104.29425761120918,
        "alt_km": 757.7491883400899,
        "timestamp": "2025-12-21T07:34:34.900157+00:00",
        "meta_object_name": "IRIDIUM 33 DEB",
        "meta_object_id": "1997-051GZ",
        "meta_epoch": "2025-12-20T17:57:40.605696",
        "meta_mean_motion": 14.38482404,
        "meta_eccentricity": 0.00666151,
        "meta_inclination": 86.371,
        "meta_ra_of_asc_node": 99.2483,
        "meta_arg_of_pericenter": 147.2319,
        "meta_mean_anomaly": 213.3038,
        "meta_ephemeris_type": 0,
        "meta_classification_type": "U",
        "meta_norad_cat_id": 34508,
        "meta_element_set_no": 999,
        "meta_rev_at_epoch": 87424,
        "meta_bstar": 0.00079549116,
        "meta_mean_motion_dot": 2.512e-05,
        "meta_mean_motion_ddot": 0,
        "tle_line1": "1 34508U 97051GZ  25354.74838664  .00002512  00000+0  79549-3 0  9993",
        "tle_line2": "2 34508  86.3710  99.2483 0066615 147.2319 213.3038 14.38482404874246"
      },
      "geometry": {
        "type": "Point",
        "coordinates": [
          104.29425761120918,
          55.44032285623023
        ]
      }
    },
    {
      "type": "Feature",
      "properties": {
        "norad_id": 34521,
        "name": "IRIDIUM 33 DEB",
        "group": "iridium-33-debris",
        "lat": -76.41561793760046,
        "lon": 11.578284839716115,
        "alt_km": 690.0105722967037,
        "timestamp": "2025-12-21T07:34:34.900167+00:00",
        "meta_object_name": "IRIDIUM 33 DEB",
        "meta_object_id": "1997-051HN",
        "meta_epoch": "2025-12-20T20:26:24.361440",
        "meta_mean_motion": 14.63427269,
        "meta_eccentricity": 0.00025589,
        "meta_inclination": 86.3787,
        "meta_ra_of_asc_node": 26.9765,
        "meta_arg_of_pericenter": 179.8016,
        "meta_mean_anomaly": 180.3197,
        "meta_ephemeris_type": 0,
        "meta_classification_type": "U",
        "meta_norad_cat_id": 34521,
        "meta_element_set_no": 999,
        "meta_rev_at_epoch": 88591,
        "meta_bstar": 0.00054051978,
        "meta_mean_motion_dot": 2.817e-05,
        "meta_mean_motion_ddot": 0,
        "tle_line1": "1 34521U 97051HN  25354.85167085  .00002817  00000+0  54052-3 0  9992",
        "tle_line2": "2 34521  86.3787  26.9765 0002558 179.8016 180.3197 14.63427269885917"
      },
      "geometry": {
        "type": "Point",
        "coordinates": [
          11.578284839716115,
          -76.41561793760046
        ]
      }
    },
    {
      "type": "Feature",
      "properties": {
        "norad_id": 34525,
        "name": "IRIDIUM 33 DEB",
        "group": "iridium-33-debris",
        "lat": -10.742763956035093,
        "lon": -136.12707489402192,
        "alt_km": 755.243511106728,
        "timestamp": "2025-12-21T07:34:34.900175+00:00",
        "meta_object_name": "IRIDIUM 33 DEB",
        "meta_object_id": "1997-051HS",
        "meta_epoch": "2025-12-20T04:21:41.244768",
        "meta_mean_motion": 14.42921764,
        "meta_eccentricity": 0.00064705,
        "meta_inclination": 86.3721,
        "meta_ra_of_asc_node": 43.6672,
        "meta_arg_of_pericenter": 78.1419,
        "meta_mean_anomaly": 345.8375,
        "meta_ephemeris_type": 0,
        "meta_classification_type": "U",
        "meta_norad_cat_id": 34525,
        "meta_element_set_no": 999,
        "meta_rev_at_epoch": 88195,
        "meta_bstar": 0.00024009823,
        "meta_mean_motion_dot": 8.22e-06,
        "meta_mean_motion_ddot": 0,
        "tle_line1": "1 34525U 97051HS  25354.18172737  .00000822  00000+0  24010-3 0  9997",
        "tle_line2": "2 34525  86.3721  43.6672 0006470  78.1419 345.8375 14.42921764881959"
      },
      "geometry": {
        "type": "Point",
        "coordinates": [
          -136.12707489402192,
          -10.742763956035093
        ]
      }
    },
    {
      "type": "Feature",
      "properties": {
        "norad_id": 34529,
        "name": "IRIDIUM 33 DEB",
        "group": "iridium-33-debris",
        "lat": 14.386958231017696,
        "lon": 32.69063805198309,
        "alt_km": 760.4594776750118,
        "timestamp": "2025-12-21T07:34:34.900185+00:00",
        "meta_object_name": "IRIDIUM 33 DEB",
        "meta_object_id": "1997-051HW",
        "meta_epoch": "2025-12-20T19:50:25.863936",
        "meta_mean_motion": 14.4062162,
        "meta_eccentricity": 0.00057731,
        "meta_inclination": 86.3633,
        "meta_ra_of_asc_node": 31.9643,
        "meta_arg_of_pericenter": 152.9902,
        "meta_mean_anomaly": 207.1599,
        "meta_ephemeris_type": 0,
        "meta_classification_type": "U",
        "meta_norad_cat_id": 34529,
        "meta_element_set_no": 999,
        "meta_rev_at_epoch": 88258,
        "meta_bstar": 8.1123499e-05,
        "meta_mean_motion_dot": 2.79e-06,
        "meta_mean_motion_ddot": 0,
        "tle_line1": "1 34529U 97051HW  25354.82668824  .00000279  00000+0  81123-4 0  9994",
        "tle_line2": "2 34529  86.3633  31.9643 0005773 152.9902 207.1599 14.40621620882580"
      },
      "geometry": {
        "type": "Point",
        "coordinates": [
          32.69063805198309,
          14.386958231017696
        ]
      }
    },
    {
      "type": "Feature",
      "properties": {
        "norad_id": 34538,
        "name": "IRIDIUM 33 DEB",
        "group": "iridium-33-debris",
        "lat": -83.88896276988305,
        "lon": -35.67060894052793,
        "alt_km": 736.0509529642368,
        "timestamp": "2025-12-21T07:34:34.900194+00:00",
        "meta_object_name": "IRIDIUM 33 DEB",
        "meta_object_id": "1997-051JF",
        "meta_epoch": "2025-12-20T05:54:09.537408",
        "meta_mean_motion": 14.42688568,
        "meta_eccentricity": 0.00321834,
        "meta_inclination": 86.2759,
        "meta_ra_of_asc_node": 2.2678,
        "meta_arg_of_pericenter": 302.109,
        "meta_mean_anomaly": 180.5468,
        "meta_ephemeris_type": 0,
        "meta_classification_type": "U",
        "meta_norad_cat_id": 34538,
        "meta_element_set_no": 999,
        "meta_rev_at_epoch": 87864,
        "meta_bstar": 0.00064183465,
        "meta_mean_motion_dot": 2.166e-05,
        "meta_mean_motion_ddot": 0,
        "tle_line1": "1 34538U 97051JF  25354.24594372  .00002166  00000+0  64183-3 0  9999",
        "tle_line2": "2 34538  86.2759   2.2678 0032183 302.1090 180.5468 14.42688568878646"
      },
      "geometry": {
        "type": "Point",
        "coordinates": [
          -35.67060894052793,
          -83.88896276988305
        ]
      }
    }
  ]
}